{"type": "FeatureCollection", "features": [ {"type": "Feature", "properties": {"norad_id": 45358, "name": "COSMOS 2545 (760)", "group": "glo-ops", "lat": 10.512012720763128, "lon": 133.7214681047181, "alt_km": 19124.216794312466, "timestamp": "2025-12-16T21:38:57.435627+00:00", "meta": {"OBJECT_NAME": "COSMOS 2545 (760)", "OBJECT_ID": "2020-018A", "EPOCH": "2025-12-14T19:19:41.135808", "MEAN_MOTION": 2.13102428, "ECCENTRICITY": 0.00117069, "INCLINATION": 64.4681, "RA_OF_ASC_NODE": 318.8965, "ARG_OF_PERICENTER": 249.0608, "MEAN_ANOMALY": 110.81, "EPHEMERIS_TYPE": 0, "CLASSIFICATION_TYPE": "U", "NORAD_CAT_ID": 45358, "ELEMENT_SET_NO": 999, "REV_AT_EPOCH": 4473, "BSTAR": 0, "MEAN_MOTION_DOT": -6.9e-07, "MEAN_MOTION_DDOT": 0}, "tle": {"line1": "1 45358U 20018A   25348.80533722 -.00000069  00000+0  00000+0 0  9992", "line2": "2 45358  64.4681 318.8965 0011706 249.0608 110.8100  2.13102428 44732"}}, "geometry": {"type": "Point", "coordinates": [133.7214681047181, 10.512012720763128]}}, {"type": "Feature", "properties": {"norad_id": 46805, "name": "COSMOS 2547 (705K)", "group": "glo-ops", "lat": 21.7107153249857, "lon": -150.53039114135544, "alt_km": 19142.190755073883, "timestamp": "2025-12-16T21:38:57.435638+00:00", "meta": {"OBJECT_NAME": "COSMOS 2547 (705K)", "OBJECT_ID": "2020-075A", "EPOCH": "2025-12-15T22:22:03.065088", "MEAN_MOTION": 2.13100081, "ECCENTRICITY": 0.00062311, "INCLINATION": 64.5961, "RA_OF_ASC_NODE": 198.5898, "ARG_OF_PERICENTER": 228.6409, "MEAN_ANOMALY": 131.3861, "EPHEMERIS_TYPE": 0, "CLASSIFICATION_TYPE": "U", "NORAD_CAT_ID": 46805, "ELEMENT_SET_NO": 999, "REV_AT_EPOCH": 4000, "BSTAR": 0, "MEAN_MOTION_DOT": 1.08e-06, "MEAN_MOTION_DDOT": 0}, "tle": {"line1": "1 46805U 20075A   25349.93197992  .00000108  00000+0  00000+0 0  9996", "line2": "2 46805  64.5961 198.5898 0006231 228.6409 131.3861  2.13100081 40000"}}, "geometry": {"type": "Point", "coordinates": [-150.53039114135544, 21.7107153249857]}}, {"type": "Feature", "properties": {"norad_id": 52984, "name": "COSMOS 2557 (706K)", "group": "glo-ops", "lat": -61.59960022093523, "lon": -156.7082712950922, "alt_km": 19103.452748135827, "timestamp": "2025-12-16T21:38:57.435649+00:00", "meta": {"OBJECT_NAME": "COSMOS 2557 (706K)", "OBJECT_ID": "2022-075A", "EPOCH": "2025-12-16T02:19:59.587680", "MEAN_MOTION": 2.13101825, "ECCENTRICITY": 0.00136925, "INCLINATION": 64.4074, "RA_OF_ASC_NODE": 320.933, "ARG_OF_PERICENTER": 277.1025, "MEAN_ANOMALY": 82.7371, "EPHEMERIS_TYPE": 0, "CLASSIFICATION_TYPE": "U", "NORAD_CAT_ID": 52984, "ELEMENT_SET_NO": 999, "REV_AT_EPOCH": 2681, "BSTAR": 0, "MEAN_MOTION_DOT": -7e-07, "MEAN_MOTION_DDOT": 0}, "tle": {"line1": "1 52984U 22075A   25350.09721745 -.00000070  00000+0  00000+0 0  9990", "line2": "2 52984  64.4074 320.9330 0013692 277.1025  82.7371  2.13101825 26818"}}, "geometry": {"type": "Point", "coordinates": [-156.7082712950922, -61.59960022093523]}}, {"type": "Feature", "properties": {"norad_id": 54031, "name": "COSMOS 2559 (707K)", "group": "glo-ops", "lat": 32.07147246017543, "lon": -21.524089446419403, "alt_km": 19153.673914598334, "timestamp": "2025-12-16T21:38:57.435660+00:00", "meta": {"OBJECT_NAME": "COSMOS 2559 (707K)", "OBJECT_ID": "2022-130A", "EPOCH": "2025-12-14T00:56:40.379136", "MEAN_MOTION": 2.13101379, "ECCENTRICITY": 0.00117642, "INCLINATION": 64.3815, "RA_OF_ASC_NODE": 321.0953, "ARG_OF_PERICENTER": 192.3475, "MEAN_ANOMALY": 167.6228, "EPHEMERIS_TYPE": 0, "CLASSIFICATION_TYPE": "U", "NORAD_CAT_ID": 54031, "ELEMENT_SET_NO": 999, "REV_AT_EPOCH": 2474, "BSTAR": 0, "MEAN_MOTION_DOT": -6.6e-07, "MEAN_MOTION_DDOT": 0}, "tle": {"line1": "1 54031U 22130A   25348.03935624 -.00000066  00000+0  00000+0 0  9996", "line2": "2 54031  64.3815 321.0953 0011764 192.3475 167.6228  2.13101379 24741"}}, "geometry": {"type": "Point", "coordinates": [-21.524089446419403, 32.07147246017543]}}, {"type": "Feature", "properties": {"norad_id": 54377, "name": "COSMOS 2564 (761)", "group": "glo-ops", "lat": 21.915934480468575, "lon": 7.8112378002945055, "alt_km": 19113.098936636357, "timestamp": "2025-12-16T21:38:57.435672+00:00", "meta": {"OBJECT_NAME": "COSMOS 2564 (761)", "OBJECT_ID": "2022-161A", "EPOCH": "2025-12-15T18:15:16.362720", "MEAN_MOTION": 2.13102109, "ECCENTRICITY": 0.0008585, "INCLINATION": 64.7384, "RA_OF_ASC_NODE": 198.7985, "ARG_OF_PERICENTER": 204.4271, "MEAN_ANOMALY": 155.6126, "EPHEMERIS_TYPE": 0, "CLASSIFICATION_TYPE": "U", "NORAD_CAT_ID": 54377, "ELEMENT_SET_NO": 999, "REV_AT_EPOCH": 2372, "BSTAR": 0, "MEAN_MOTION_DOT": 1.07e-06, "MEAN_MOTION_DDOT": 0}, "tle": {"line1": "1 54377U 22161A   25349.76060605  .00000107  00000+0  00000+0 0  9997", "line2": "2 54377  64.7384 198.7985 0008585 204.4271 155.6126  2.13102109 23722"}}, "geometry": {"type": "Point", "coordinates": [7.8112378002945055, 21.915934480468575]}}, {"type": "Feature", "properties": {"norad_id": 57517, "name": "COSMOS 2569 (703K)", "group": "glo-ops", "lat": 31.109947614038827, "lon": -117.39663318732084, "alt_km": 19147.418936375252, "timestamp": "2025-12-16T21:38:57.435683+00:00", "meta": {"OBJECT_NAME": "COSMOS 2569 (703K)", "OBJECT_ID": "2023-114A", "EPOCH": "2025-12-15T18:34:28.815168", "MEAN_MOTION": 2.13104018, "ECCENTRICITY": 0.00106247, "INCLINATION": 65.1958, "RA_OF_ASC_NODE": 78.8109, "ARG_OF_PERICENTER": 286.9664, "MEAN_ANOMALY": 72.9318, "EPHEMERIS_TYPE": 0, "CLASSIFICATION_TYPE": "U", "NORAD_CAT_ID": 57517, "ELEMENT_SET_NO": 999, "REV_AT_EPOCH": 1835, "BSTAR": 0, "MEAN_MOTION_DOT": -5.6e-07, "MEAN_MOTION_DDOT": 0}, "tle": {"line1": "1 57517U 23114A   25349.77394462 -.00000056  00000+0  00000+0 0  9991", "line2": "2 57517  65.1958  78.8109 0010624 286.9664  72.9318  2.13104018 18355"}}, "geometry": {"type": "Point", "coordinates": [-117.39663318732084, 31.109947614038827]}}, {"type": "Feature", "properties": {"norad_id": 63130, "name": "COSMOS 2584 (704K)", "group": "glo-ops", "lat": -45.94010539548027, "lon": -72.18261846842397, "alt_km": 19116.293469950775, "timestamp": "2025-12-16T21:38:57.435694+00:00", "meta": {"OBJECT_NAME": "COSMOS 2584 (704K)", "OBJECT_ID": "2025-042A", "EPOCH": "2025-12-14T17:19:43.603680", "MEAN_MOTION": 2.13103043, "ECCENTRICITY": 0.00076907, "INCLINATION": 64.977, "RA_OF_ASC_NODE": 79.0784, "ARG_OF_PERICENTER": 217.9412, "MEAN_ANOMALY": 142.0178, "EPHEMERIS_TYPE": 0, "CLASSIFICATION_TYPE": "U", "NORAD_CAT_ID": 63130, "ELEMENT_SET_NO": 999, "REV_AT_EPOCH": 611, "BSTAR": 0, "MEAN_MOTION_DOT": -5.6e-07, "MEAN_MOTION_DDOT": 0}, "tle": {"line1": "1 63130U 25042A   25348.72203245 -.00000056  00000+0  00000+0 0  9993", "line2": "2 63130  64.9770  79.0784 0007690 217.9412 142.0178  2.13103043  6119"}}, "geometry": {"type": "Point", "coordinates": [-72.18261846842397, -45.94010539548027]}}, {"type": "Feature", "properties": {"norad_id": 65590, "name": "COSMOS 2596 (708K)", "group": "glo-ops", "lat": -8.163569016203965, "lon": -42.56631658016909, "alt_km": 19105.965485496727, "timestamp": "2025-12-16T21:38:57.435705+00:00", "meta": {"OBJECT_NAME": "COSMOS 2596 (708K)", "OBJECT_ID": "2025-206B", "EPOCH": "2025-12-16T02:29:28.552416", "MEAN_MOTION": 2.13100546, "ECCENTRICITY": 0.00140382, "INCLINATION": 64.7427, "RA_OF_ASC_NODE": 321.3574, "ARG_OF_PERICENTER": 306.6506, "MEAN_ANOMALY": 151.812, "EPHEMERIS_TYPE": 0, "CLASSIFICATION_TYPE": "U", "NORAD_CAT_ID": 65590, "ELEMENT_SET_NO": 999, "REV_AT_EPOCH": 201, "BSTAR": 0, "MEAN_MOTION_DOT": -6.9e-07, "MEAN_MOTION_DDOT": 0}, "tle": {"line1": "1 65590U 25206B   25350.10380269 -.00000069  00000+0  00000+0 0  9998", "line2": "2 65590  64.7427 321.3574 0014038 306.6506 151.8120  2.13100546  2017"}}, "geometry": {"type": "Point", "coordinates": [-42.56631658016909, -8.163569016203965]}}]}